CTC2_L_00445016-03
1 45555U 22084BU  26037.47796296  .00000000  00000+0  00000-0 0  9997
2 45555  40.0000 180.0000 0000000   0.0000   0.0000 15.90815258    14
CTC2_L_00445016-04
1 45556U 22824NZ  26037.47796296  .00000000  00000+0  00000-0 0  9990
2 45556  40.0000 180.0000 0000000   0.0000  90.0000 15.90815258    14
CTC2_L_00445017-01
1 45557U 26904GQ  26037.47796296  .00000000  00000+0  00000-0 0  9994
2 45557  40.0000 192.0000 0000000   0.0000 192.0000 15.90815258    11
CTC2_L_00445017-02
1 45558U 24422RD  26037.47796296  .00000000  00000+0  00000-0 0  9998
2 45558  40.0000 192.0000 0000000   0.0000 282.0000 15.90815258    12
CTC2_L_00445017-03
1 45559U 24212HA  26037.47796296  .00000000  00000+0  00000-0 0  9996
2 45559  40.0000 192.0000 0000000   0.0000  12.0000 15.90815258    14
CTC2_L_00445017-04
1 45560U 26760IV  26037.47796296  .00000000  00000+0  00000-0 0  9998
2 45560  40.0000 192.0000 0000000   0.0000 102.0000 15.90815258    16
CTC2_L_00445018-01
1 45561U 24456XM  26037.47796296  .00000000  00000+0  00000-0 0  9999
2 45561  40.0000 204.0000 0000000   0.0000 204.0000 15.90815258    14
CTC2_L_00445018-02
1 45562U 22147ZK  26037.47796296  .00000000  00000+0  00000-0 0  9995
2 45562  40.0000 204.0000 0000000   0.0000 294.0000 15.90815258    14
CTC2_L_00445018-03
1 45563U 24335EP  26037.47796296  .00000000  00000+0  00000-0 0  9997
2 45563  40.0000 204.0000 0000000   0.0000  24.0000 15.90815258    16
CTC2_L_00445018-04
1 45564U 23470WL  26037.47796296  .00000000  00000+0  00000-0 0  9997
2 45564  40.0000 204.0000 0000000   0.0000 114.0000 15.90815258    17
CTC2_L_00445019-01
1 45565U 23794NV  26037.47796296  .00000000  00000+0  00000-0 0  9997
2 45565  40.0000 216.0000 0000000   0.0000 216.0000 15.90815258    14
CTC2_L_00445019-02
1 45566U 24936FW  26037.47796296  .00000000  00000+0  00000-0 0  9997
2 45566  40.0000 216.0000 0000000   0.0000 306.0000 15.90815258    15
CTC2_L_00445019-03
1 45567U 22318DE  26037.47796296  .00000000  00000+0  00000-0 0  9990
2 45567  40.0000 216.0000 0000000   0.0000  36.0000 15.90815258    16
CTC2_L_00445019-04
1 45568U 24764CS  26037.47796296  .00000000  00000+0  00000-0 0  9998
2 45568  40.0000 216.0000 0000000   0.0000 126.0000 15.90815258    17
CTC2_L_00445020-01
1 45569U 22028RI  26037.47796296  .00000000  00000+0  00000-0 0  9990
2 45569  40.0000 228.0000 0000000   0.0000 228.0000 15.90815258    14
CTC2_L_00445020-02
1 45570U 24028QG  26037.47796296  .00000000  00000+0  00000-0 0  9994
2 45570  40.0000 228.0000 0000000   0.0000 318.0000 15.90815258    16
CTC2_L_00445020-03
1 45571U 26625GS  26037.47796296  .00000000  00000+0  00000-0 0  9990
2 45571  40.0000 228.0000 0000000   0.0000  48.0000 15.90815258    17
CTC2_L_00445020-04
1 45572U 23128H   26037.47796296  .00000000  00000+0  00000-0 0  9996
2 45572  40.0000 228.0000 0000000   0.0000 138.0000 15.90815258    18
CTC2_L_00445021-01
1 45573U 23229IR  26037.47796296  .00000000  00000+0  00000-0 0  9999
2 45573  40.0000 240.0000 0000000   0.0000 240.0000 15.90815258    17
CTC2_L_00445021-02
1 45574U 26805TF  26037.47796296  .00000000  00000+0  00000-0 0  9993
2 45574  40.0000 240.0000 0000000   0.0000 330.0000 15.90815258    18
CTC2_L_00445021-03
1 45575U 22234OP  26037.47796296  .00000000  00000+0  00000-0 0  9996
2 45575  40.0000 240.0000 0000000   0.0000  60.0000 15.90815258    19
CTC2_L_00445021-04
1 45576U 23399LL  26037.47796296  .00000000  00000+0  00000-0 0  9990
2 45576  40.0000 240.0000 0000000   0.0000 150.0000 15.90815258    10
CTC2_L_00445022-01
1 45577U 22539NK  26037.47796296  .00000000  00000+0  00000-0 0  9996
2 45577  40.0000 252.0000 0000000   0.0000 252.0000 15.90815258    17
CTC2_L_00445022-02
1 45578U 26907RQ  26037.47796296  .00000000  00000+0  00000-0 0  9990
2 45578  40.0000 252.0000 0000000   0.0000 342.0000 15.90815258    18
CTC2_L_00445022-03
1 45579U 24775HG  26037.47796296  .00000000  00000+0  00000-0 0  9992
2 45579  40.0000 252.0000 0000000   0.0000  72.0000 15.90815258    19
CTC2_L_00445022-04
1 45580U 22574X   26037.47796296  .00000000  00000+0  00000-0 0  9999
2 45580  40.0000 252.0000 0000000   0.0000 162.0000 15.90815258    11
CTC2_L_00445023-01
1 45581U 23449BY  26037.47796296  .00000000  00000+0  00000-0 0  9992
2 45581  40.0000 264.0000 0000000   0.0000 264.0000 15.90815258    18
CTC2_L_00445023-02
1 45582U 26286WG  26037.47796296  .00000000  00000+0  00000-0 0  9995
2 45582  40.0000 264.0000 0000000   0.0000 354.0000 15.90815258    19
CTC2_L_00445023-03
1 45583U 25085ZO  26037.47796296  .00000000  00000+0  00000-0 0  9992
2 45583  40.0000 264.0000 0000000   0.0000  84.0000 15.90815258    10
CTC2_L_00445023-04
1 45584U 23776HO  26037.47796296  .00000000  00000+0  00000-0 0  9998
2 45584  40.0000 264.0000 0000000   0.0000 174.0000 15.90815258    11
CTC2_L_00445024-01
1 45585U 24817OK  26037.47796296  .00000000  00000+0  00000-0 0  9996
2 45585  40.0000 276.0000 0000000   0.0000 276.0000 15.90815258    18
CTC2_L_00445024-02
1 45586U 23896XM  26037.47796296  .00000000  00000+0  00000-0 0  9993
2 45586  40.0000 276.0000 0000000   0.0000   6.0000 15.90815258    10
CTC2_L_00445024-03
1 45587U 22437NV  26037.47796296  .00000000  00000+0  00000-0 0  9994
2 45587  40.0000 276.0000 0000000   0.0000  96.0000 15.90815258    10
CTC2_L_00445024-04
1 45588U 24676ES  26037.47796296  .00000000  00000+0  00000-0 0  9992
2 45588  40.0000 276.0000 0000000   0.0000 186.0000 15.90815258    11
CTC2_L_00445025-01
1 45589U 25121LJ  26037.47796296  .00000000  00000+0  00000-0 0  9999
2 45589  40.0000 288.0000 0000000   0.0000 288.0000 15.90815258    18
CTC2_L_00445025-02
1 45590U 26139UK  26037.47796296  .00000000  00000+0  00000-0 0  9991
2 45590  40.0000 288.0000 0000000   0.0000  18.0000 15.90815258    11
CTC2_L_00445025-03
1 45591U 26665NJ  26037.47796296  .00000000  00000+0  00000-0 0  9996
2 45591  40.0000 288.0000 0000000   0.0000 108.0000 15.90815258    12
CTC2_L_00445025-04
1 45592U 22166DG  26037.47796296  .00000000  00000+0  00000-0 0  9999
2 45592  40.0000 288.0000 0000000   0.0000 198.0000 15.90815258    12
CTC2_L_00445026-01
1 45593U 22855QV  26037.47796296  .00000000  00000+0  00000-0 0  9995
2 45593  40.0000 300.0000 0000000   0.0000 300.0000 15.90815258    13
CTC2_L_00445026-02
1 45594U 25606KA  26037.47796296  .00000000  00000+0  00000-0 0  9993
2 45594  40.0000 300.0000 0000000   0.0000  30.0000 15.90815258    14
CTC2_L_00445026-03
1 45595U 23731VH  26037.47796296  .00000000  00000+0  00000-0 0  9991
2 45595  40.0000 300.0000 0000000   0.0000 120.0000 15.90815258    15
CTC2_L_00445026-04
1 45596U 25365SC  26037.47796296  .00000000  00000+0  00000-0 0  9997
2 45596  40.0000 300.0000 0000000   0.0000 210.0000 15.90815258    16
CTC2_L_00445027-01
1 45597U 22727IJ  26037.47796296  .00000000  00000+0  00000-0 0  9997
2 45597  40.0000 312.0000 0000000   0.0000 312.0000 15.90815258    13
CTC2_L_00445027-02
1 45598U 24819UK  26037.47796296  .00000000  00000+0  00000-0 0  9992
2 45598  40.0000 312.0000 0000000   0.0000  42.0000 15.90815258    14
CTC2_L_00445027-03
1 45599U 25439YQ  26037.47796296  .00000000  00000+0  00000-0 0  9992
2 45599  40.0000 312.0000 0000000   0.0000 132.0000 15.90815258    15
CTC2_L_00445027-04
1 45600U 24443EV  26037.47796296  .00000000  00000+0  00000-0 0  9999
2 45600  40.0000 312.0000 0000000   0.0000 222.0000 15.90815258    18
CTC2_L_00445028-01
1 45601U 23902VU  26037.47796296  .00000000  00000+0  00000-0 0  9999
2 45601  40.0000 324.0000 0000000   0.0000 324.0000 15.90815258    15
CTC2_L_00445028-02
1 45602U 24290DD  26037.47796296  .00000000  00000+0  00000-0 0  9991
2 45602  40.0000 324.0000 0000000   0.0000  54.0000 15.90815258    16
CTC2_L_00445028-03
1 45603U 23975AB  26037.47796296  .00000000  00000+0  00000-0 0  9991
2 45603  40.0000 324.0000 0000000   0.0000 144.0000 15.90815258    17
CTC2_L_00445028-04
1 45604U 22854JS  26037.47796296  .00000000  00000+0  00000-0 0  9997
2 45604  40.0000 324.0000 0000000   0.0000 234.0000 15.90815258    18
CTC2_L_00445029-01
1 45605U 26046HX  26037.47796296  .00000000  00000+0  00000-0 0  9995
2 45605  40.0000 336.0000 0000000   0.0000 336.0000 15.90815258    15
CTC2_L_00445029-02
1 45606U 24035OJ  26037.47796296  .00000000  00000+0  00000-0 0  9992
2 45606  40.0000 336.0000 0000000   0.0000  66.0000 15.90815258    16
CTC2_L_00445029-03
1 45607U 22723AD  26037.47796296  .00000000  00000+0  00000-0 0  9995
2 45607  40.0000 336.0000 0000000   0.0000 156.0000 15.90815258    17
CTC2_L_00445029-04
1 45608U 23428YC  26037.47796296  .00000000  00000+0  00000-0 0  9999
2 45608  40.0000 336.0000 0000000   0.0000 246.0000 15.90815258    18
CTC2_L_00445030-01
1 45609U 26967GR  26037.47796296  .00000000  00000+0  00000-0 0  9991
2 45609  40.0000 348.0000 0000000   0.0000 348.0000 15.90815258    15
CTC2_L_00445030-02
1 45610U 22674OQ  26037.47796296  .00000000  00000+0  00000-0 0  9994
2 45610  40.0000 348.0000 0000000   0.0000  78.0000 15.90815258    17
CTC2_L_00445030-03
1 45611U 25062XW  26037.47796296  .00000000  00000+0  00000-0 0  9999
2 45611  40.0000 348.0000 0000000   0.0000 168.0000 15.90815258    18
CTC2_L_00445030-04
1 45612U 22689ML  26037.47796296  .00000000  00000+0  00000-0 0  9992
2 45612  40.0000 348.0000 0000000   0.0000 258.0000 15.90815258    19
